name,operator,address,description,lun_normal,mar_normal,mer_normal,jeu_normal,ven_normal,sam_normal,dim_normal,hourly_normal,daily_normal,lun_special,mar_special,mer_special,jeu_special,ven_special,sam_special,dim_special,hourly_special,daily_special,lun_free,mar_free,mer_free,jeu_free,ven_free,sam_free,dim_free,indoor,handicap,clerk,valet,lat,long,active
#024 Saint-André,Stationnement de Montréal,6629 rue Saint-André,,"6,24","6,24","6,24","6,24","6,24","6,24","6,24",1.75,8,,,,,,,,,,"0,6","0,6","0,6","0,6","0,6","0,6","0,6",FALSE,TRUE,FALSE,FALSE,45.5378949999999989,-73.60497300000000109,TRUE
#045 Gare Viger,Stationnement de Montréal,730 rue Saint-Hubert,,"15,24","15,24","15,24","15,24","15,24","0,24","0,24",4,17,,,,,,,,,,"0,15","0,15","0,15","0,15","0,15",,,FALSE,FALSE,FALSE,FALSE,45.51280200000000775,-73.55161300000000324,TRUE
#066 Place-Eugène-Lapierre,Stationnement de Montréal,333 boulevard de Maisonneuve Ouest,,"17,24","17,24","17,24","17,24","17,24","17,24","17,24",4.50,16,,,,,,,,,,"17,24","17,24","17,24","17,24","17,24","17,24","17,24",FALSE,FALSE,FALSE,FALSE,45.50770200000000187,-73.56891600000000153,TRUE
#072 Marquette,Stationnement de Montréal,4543 rue Fabre,,"6,24","6,24","6,24","6,24","6,24","6,24","6,24",3,12,,,,,,,,,,"6,24","6,24","6,24","6,24","6,24","6,24","6,24",FALSE,FALSE,FALSE,FALSE,45.53217699999999724,-73.57621000000000322,TRUE
#073 6e avenue,Stationnement de Montréal,5435 6e Avenue,,"6,24","6,24","6,24","6,24","6,24","6,24","6,24",1.75,8,,,,,,,,,,"6,24","6,24","6,24","6,24","6,24","6,24","6,24",FALSE,FALSE,FALSE,FALSE,45.54838199999999659,-73.57546200000000169,TRUE
#075 8e avenue,Stationnement de Montréal,5435 8e Avenue,,"6,24","6,24","6,24","6,24","6,24","6,24","6,24",1.75,8,,,,,,,,,,"6,24","6,24","6,24","6,24","6,24","6,24","6,24",FALSE,FALSE,FALSE,FALSE,45.54947299999999899,-73.57481400000000349,TRUE
#078 Boyer,Stationnement de Montréal,6900 rue Boyer,,"6,24","6,24","6,24","6,24","6,24","6,24","6,24",2.50,10,,,,,,,,,,"6,24","6,24","6,24","6,24","6,24","6,24","6,24",FALSE,TRUE,FALSE,FALSE,45.53975299999999748,-73.60866500000000201,TRUE
#115 Remembrance (Lac aux Castors),Stationnement de Montréal,2000 chemin Remembrance,,"6,24","6,24","6,24","6,24","6,24","6,24","6,24",3,8,,,,,,,,,,"6,24","6,24","6,24","6,24","6,24","6,24","6,24",FALSE,TRUE,FALSE,FALSE,45.49942000000000064,-73.59989199999999698,TRUE
#116 Remembrance,Stationnement de Montréal,2000 chemin Remembrance,,"6,24","6,24","6,24","6,24","6,24","6,24","6,24",3,8,,,,,,,,,,"6,24","6,24","6,24","6,24","6,24","6,24","6,24",FALSE,TRUE,FALSE,FALSE,45.49872200000000788,-73.60099800000000414,TRUE
#117 Remembrance (Maison Smith),Stationnement de Montréal,1502 chemin Remembrance,,"6,24","6,24","6,24","6,24","6,24","6,24","6,24",3,8,,,,,,,,,,"6,24","6,24","6,24","6,24","6,24","6,24","6,24",FALSE,TRUE,FALSE,FALSE,45.50168599999999941,-73.59432999999999936,TRUE
#118 Remembrance (centre de la montagne),Stationnement de Montréal,1502 chemin Remembrance,,"6,24","6,24","6,24","6,24","6,24","6,24","6,24",3,8,,,,,,,,,,"6,24","6,24","6,24","6,24","6,24","6,24","6,24",FALSE,TRUE,FALSE,FALSE,45.50267000000000195,-73.59411599999999964,TRUE
#139 Sherbrooke Est,Stationnement de Montréal,3500 avenue Calixa-Lavalée,,"6,24","6,24","6,24","6,24","6,24","6,24","6,24",3.50,13,,,,,,,,,,"6,24","6,24","6,24","6,24","6,24","6,24","6,24",FALSE,TRUE,FALSE,FALSE,45.52327700000000021,-73.56568099999999788,TRUE
#169 Saint-Vallier,Stationnement de Montréal,7080 rue de Saint-Vallier,,"6,24","6,24","6,24","6,24","6,24","6,24","6,24",3,10,,,,,,,,,,"6,24","6,24","6,24","6,24","6,24","6,24","6,24",FALSE,FALSE,FALSE,FALSE,45.5387800000000027,-73.61364700000000028,TRUE
#170 Métro Rosemont,Stationnement de Montréal,420 boulevard Rosemont,,"6,24","6,24","6,24","6,24","6,24","6,24","6,24",3,10,,,,,,,,,,"6,24","6,24","6,24","6,24","6,24","6,24","6,24",FALSE,FALSE,FALSE,FALSE,45.53109400000000306,-73.59796900000000619,TRUE
#182 Coolbrook,Stationnement de Montréal,4971 avenue Coolbrook,,"6,24","6,24","6,24","6,24","6,24","6,24","6,24",2,10,,,,,,,,,,"6,24","6,24","6,24","6,24","6,24","6,24","6,24",FALSE,FALSE,FALSE,FALSE,45.48256920000000036,-73.62931140000000596,TRUE
#191 Saint-André,Stationnement de Montréal,7121 rue Saint-André,,"6,24","6,24","6,24","6,24","6,24","6,24","6,24",2.50,10,,,,,,,,,,"6,24","6,24","6,24","6,24","6,24","6,24","6,24",FALSE,FALSE,FALSE,FALSE,45.54084399999999988,-73.61191599999999369,TRUE
#197 Hôpital Notre-Dame,Stationnement de Montréal,3410 avenue Émile-Duployé,,"6,24","6,24","6,24","6,24","6,24","6,24","6,24",3.50,14,,,,,,,,,,"6,24","6,24","6,24","6,24","6,24","6,24","6,24",FALSE,TRUE,FALSE,FALSE,45.52742800000000045,-73.56439199999999801,TRUE
#207 Notre-Dame Ouest,Stationnement de Montréal,990 rue Notre-Dame Ouest,,"6,24","6,24","6,24","6,24","6,24","6,24","6,24",4,12,,,,,,,,,,"6,24","6,24","6,24","6,24","6,24","6,24","6,24",FALSE,FALSE,FALSE,FALSE,45.49673800000000057,-73.56261399999999639,TRUE
#216 Parc Lafontaine,Stationnement de Montréal,4153 avenue Papineau,,"6,24","6,24","6,24","6,24","6,24","6,24","6,24",3,12,,,,,,,,,,"6,24","6,24","6,24","6,24","6,24","6,24","6,24",FALSE,FALSE,FALSE,FALSE,45.53040299999999974,-73.5695039999999949,TRUE
#227 de la Montagne,Stationnement de Montréal,792 rue Lucien-l’Allier,,"17,24","17,24","17,24","17,24","17,24","6,24","6,24",3,15,,,,,,,,,,"17,24","17,24","17,24","17,24","17,24","6,24","6,24",FALSE,FALSE,FALSE,FALSE,45.49443400000000537,-73.5694430000000068,TRUE
#234 Berri,Stationnement de Montréal,500 rue Berri,,"0,24","0,24","0,24","0,24","0,24","0,24","0,24",3,9,,,,,,,,,,"0,24","0,24","0,24","0,24","0,24","0,24","0,24",FALSE,FALSE,FALSE,FALSE,45.51186229999999711,-73.55254480000000683,TRUE
#243 Parc Angrignon,Stationnement de Montréal,7060 rue Lacroix,,"6,24","6,24","6,24","6,24","6,24","6,24","6,24",3,9,,,,,,,,,,"6,24","6,24","6,24","6,24","6,24","6,24","6,24",FALSE,TRUE,FALSE,FALSE,45.44577000000000311,-73.60210399999999709,TRUE
#270 Aréna Saint-Louis,Stationnement de Montréal,5633 rue Saint-Dominique,,"6,17","6,17","6,17","6,17","6,17",,,3,12,,,,,,,,,,"6,17","6,17","6,17","6,17","6,17",,,FALSE,FALSE,FALSE,FALSE,45.52775599999999656,-73.60006699999999569,TRUE
#275 Belvédère,Stationnement de Montréal,1576 voie Camillien-Houde,,"6,24","6,24","6,24","6,24","6,24","6,24","6,24",3,8,,,,,,,,,,"6,24","6,24","6,24","6,24","6,24","6,24","6,24",FALSE,FALSE,FALSE,FALSE,45.51048200000000321,-73.59249800000000619,TRUE
#302 Saint-André,Stationnement de Montréal,6250 rue Saint-André,,"6,24","6,24","6,24","6,24","6,24","6,24","6,24",1.75,8,,,,,,,,,,"6,24","6,24","6,24","6,24","6,24","6,24","6,24",FALSE,FALSE,FALSE,FALSE,45.53552200000000028,-73.60034899999999425,TRUE
#303 Saint-André,Stationnement de Montréal,6344 rue Saint-André,,"6,24","6,24","6,24","6,24","6,24","6,24","6,24",1.75,8,,,,,,,,,,"6,24","6,24","6,24","6,24","6,24","6,24","6,24",FALSE,FALSE,FALSE,FALSE,45.53612499999999841,-73.60159299999999405,TRUE
#311 Beaubien Est,Stationnement de Montréal,909 rue Beaubien Est,,"6,24","6,24","6,24","6,24","6,24","6,24","6,24",1.75,8,,,,,,,,,,"6,24","6,24","6,24","6,24","6,24","6,24","6,24",FALSE,TRUE,FALSE,FALSE,45.53702499999999986,-73.60262299999999414,TRUE
#361 Place-Saint-Henri,Stationnement de Montréal,532 place Saint-Henri,,"6,24","6,24","6,24","6,24","6,24","6,24","6,24",2,10,,,,,,,,,,"6,24","6,24","6,24","6,24","6,24","6,24","6,24",FALSE,FALSE,FALSE,FALSE,45.47725299999999748,-73.58550999999999931,TRUE
#400 Mansfield,Stationnement de Montréal,700 rue Mansfield,,"6,24","6,24","6,24","6,24","6,24","6,24","6,24",5,17,,,,,,,,,,"6,24","6,24","6,24","6,24","6,24","6,24","6,24",FALSE,FALSE,FALSE,FALSE,45.49760799999999961,-73.56463599999999303,TRUE
#415 Vieux-Montréal,Stationnement de Montréal,50 rue Saint-Jacques,,"6,24","6,24","6,24","6,24","6,24","6,24","6,24",6,17,,,,,,,,,,"6,24","6,24","6,24","6,24","6,24","6,24","6,24",FALSE,FALSE,FALSE,FALSE,45.50564760000000319,-73.55656740000000582,TRUE